{
  "type": "FeatureCollection",
  "features": [
    {
      "type": "Feature",
      "properties": {
        "norad_id": 30073,
        "name": "FENGYUN 1C DEB",
        "group": "fengyun-1c-debris",
        "lat": -53.26380932023687,
        "lon": 121.44806880448833,
        "alt_km": 818.0612801525713,
        "timestamp": "2025-12-07T11:27:50.275873+00:00",
        "meta_object_name": "FENGYUN 1C DEB",
        "meta_object_id": "1999-025QA",
        "meta_epoch": "2025-12-06T09:42:01.902816",
        "meta_mean_motion": 14.18603795,
        "meta_eccentricity": 0.00541348,
        "meta_inclination": 99.4109,
        "meta_ra_of_asc_node": 313.1489,
        "meta_arg_of_pericenter": 298.5759,
        "meta_mean_anomaly": 216.9943,
        "meta_ephemeris_type": 0,
        "meta_classification_type": "U",
        "meta_norad_cat_id": 30073,
        "meta_element_set_no": 999,
        "meta_rev_at_epoch": 96835,
        "meta_bstar": 0.0030999184,
        "meta_mean_motion_dot": 6.471e-05,
        "meta_mean_motion_ddot": 0,
        "tle_line1": "1 30073U 99025QA  25340.40418869  .00006471  00000+0  30999-2 0  9991",
        "tle_line2": "2 30073  99.4109 313.1489 0054134 298.5759 216.9943 14.18603795968357"
      },
      "geometry": {
        "type": "Point",
        "coordinates": [
          121.44806880448833,
          -53.26380932023687
        ]
      }
    },
    {
      "type": "Feature",
      "properties": {
        "norad_id": 30074,
        "name": "FENGYUN 1C DEB",
        "group": "fengyun-1c-debris",
        "lat": 77.39477157489851,
        "lon": -86.41045778343207,
        "alt_km": 815.0239091084904,
        "timestamp": "2025-12-07T11:27:50.275883+00:00",
        "meta_object_name": "FENGYUN 1C DEB",
        "meta_object_id": "1999-025QB",
        "meta_epoch": "2025-12-05T23:18:03.892032",
        "meta_mean_motion": 14.12797864,
        "meta_eccentricity": 0.00976106,
        "meta_inclination": 99.1292,
        "meta_ra_of_asc_node": 46.0768,
        "meta_arg_of_pericenter": 170.5804,
        "meta_mean_anomaly": 189.7227,
        "meta_ephemeris_type": 0,
        "meta_classification_type": "U",
        "meta_norad_cat_id": 30074,
        "meta_element_set_no": 999,
        "meta_rev_at_epoch": 96566,
        "meta_bstar": 0.0027772932,
        "meta_mean_motion_dot": 5.356e-05,
        "meta_mean_motion_ddot": 0,
        "tle_line1": "1 30074U 99025QB  25339.97087838  .00005356  00000+0  27773-2 0  9997",
        "tle_line2": "2 30074  99.1292  46.0768 0097610 170.5804 189.7227 14.12797864965664"
      },
      "geometry": {
        "type": "Point",
        "coordinates": [
          -86.41045778343207,
          77.39477157489851
        ]
      }
    },
    {
      "type": "Feature",
      "properties": {
        "norad_id": 30075,
        "name": "FENGYUN 1C DEB",
        "group": "fengyun-1c-debris",
        "lat": -38.243455488764255,
        "lon": -155.7344074648512,
        "alt_km": 867.175095087634,
        "timestamp": "2025-12-07T11:27:50.275893+00:00",
        "meta_object_name": "FENGYUN 1C DEB",
        "meta_object_id": "1999-025QC",
        "meta_epoch": "2025-12-06T21:28:33.376800",
        "meta_mean_motion": 13.9253012,
        "meta_eccentricity": 0.00908454,
        "meta_inclination": 99.3625,
        "meta_ra_of_asc_node": 31.148,
        "meta_arg_of_pericenter": 192.8106,
        "meta_mean_anomaly": 345.2307,
        "meta_ephemeris_type": 0,
        "meta_classification_type": "U",
        "meta_norad_cat_id": 30075,
        "meta_element_set_no": 999,
        "meta_rev_at_epoch": 95983,
        "meta_bstar": 0.00033576781,
        "meta_mean_motion_dot": 4.02e-06,
        "meta_mean_motion_ddot": 0,
        "tle_line1": "1 30075U 99025QC  25340.89483075  .00000402  00000+0  33577-3 0  9991",
        "tle_line2": "2 30075  99.3625  31.1480 0090845 192.8106 345.2307 13.92530120959835"
      },
      "geometry": {
        "type": "Point",
        "coordinates": [
          -155.7344074648512,
          -38.243455488764255
        ]
      }
    },
    {
      "type": "Feature",
      "properties": {
        "norad_id": 30076,
        "name": "FENGYUN 1C DEB",
        "group": "fengyun-1c-debris",
        "lat": -42.72285999764562,
        "lon": 139.7151967262446,
        "alt_km": 1037.6755936575319,
        "timestamp": "2025-12-07T11:27:50.275903+00:00",
        "meta_object_name": "FENGYUN 1C DEB",
        "meta_object_id": "1999-025QD",
        "meta_epoch": "2025-12-06T22:26:57.346080",
        "meta_mean_motion": 13.76285486,
        "meta_eccentricity": 0.01756075,
        "meta_inclination": 99.2375,
        "meta_ra_of_asc_node": 327.8326,
        "meta_arg_of_pericenter": 109.1217,
        "meta_mean_anomaly": 307.025,
        "meta_ephemeris_type": 0,
        "meta_classification_type": "U",
        "meta_norad_cat_id": 30076,
        "meta_element_set_no": 999,
        "meta_rev_at_epoch": 94814,
        "meta_bstar": 0.00041252325,
        "meta_mean_motion_dot": 4.09e-06,
        "meta_mean_motion_ddot": 0,
        "tle_line1": "1 30076U 99025QD  25340.93538595  .00000409  00000+0  41252-3 0  9991",
        "tle_line2": "2 30076  99.2375 327.8326 0175607 109.1217 307.0250 13.76285486948144"
      },
      "geometry": {
        "type": "Point",
        "coordinates": [
          139.7151967262446,
          -42.72285999764562
        ]
      }
    },
    {
      "type": "Feature",
      "properties": {
        "norad_id": 30077,
        "name": "FENGYUN 1C DEB",
        "group": "fengyun-1c-debris",
        "lat": -74.34744491973647,
        "lon": 30.67852666919831,
        "alt_km": 861.896516191181,
        "timestamp": "2025-12-07T11:27:50.275913+00:00",
        "meta_object_name": "FENGYUN 1C DEB",
        "meta_object_id": "1999-025QE",
        "meta_epoch": "2025-12-06T21:02:39.054624",
        "meta_mean_motion": 14.07077414,
        "meta_eccentricity": 0.00204242,
        "meta_inclination": 98.7583,
        "meta_ra_of_asc_node": 356.7165,
        "meta_arg_of_pericenter": 281.5658,
        "meta_mean_anomaly": 199.6993,
        "meta_ephemeris_type": 0,
        "meta_classification_type": "U",
        "meta_norad_cat_id": 30077,
        "meta_element_set_no": 999,
        "meta_rev_at_epoch": 97030,
        "meta_bstar": 6.8055825e-05,
        "meta_mean_motion_dot": 7.1e-07,
        "meta_mean_motion_ddot": 0,
        "tle_line1": "1 30077U 99025QE  25340.87684091  .00000071  00000+0  68056-4 0  9995",
        "tle_line2": "2 30077  98.7583 356.7165 0020424 281.5658 199.6993 14.07077414970309"
      },
      "geometry": {
        "type": "Point",
        "coordinates": [
          30.67852666919831,
          -74.34744491973647
        ]
      }
    },
    {
      "type": "Feature",
      "properties": {
        "norad_id": 30078,
        "name": "FENGYUN 1C DEB",
        "group": "fengyun-1c-debris",
        "lat": -47.96469664304599,
        "lon": -133.60345905973597,
        "alt_km": 806.8927525165054,
        "timestamp": "2025-12-07T11:27:50.275923+00:00",
        "meta_object_name": "FENGYUN 1C DEB",
        "meta_object_id": "1999-025QF",
        "meta_epoch": "2025-12-06T19:45:04.379904",
        "meta_mean_motion": 14.2308442,
        "meta_eccentricity": 0.00525659,
        "meta_inclination": 98.8326,
        "meta_ra_of_asc_node": 55.6717,
        "meta_arg_of_pericenter": 297.7546,
        "meta_mean_anomaly": 179.2459,
        "meta_ephemeris_type": 0,
        "meta_classification_type": "U",
        "meta_norad_cat_id": 30078,
        "meta_element_set_no": 999,
        "meta_rev_at_epoch": 97029,
        "meta_bstar": 0.0022122852,
        "meta_mean_motion_dot": 5.019e-05,
        "meta_mean_motion_ddot": 0,
        "tle_line1": "1 30078U 99025QF  25340.82296736  .00005019  00000+0  22123-2 0  9996",
        "tle_line2": "2 30078  98.8326  55.6717 0052565 297.7546 179.2459 14.23084420970292"
      },
      "geometry": {
        "type": "Point",
        "coordinates": [
          -133.60345905973597,
          -47.96469664304599
        ]
      }
    },
    {
      "type": "Feature",
      "properties": {
        "norad_id": 30079,
        "name": "FENGYUN 1C DEB",
        "group": "fengyun-1c-debris",
        "lat": 28.23400799061384,
        "lon": 32.17077133701762,
        "alt_km": 873.1348645567505,
        "timestamp": "2025-12-07T11:27:50.275934+00:00",
        "meta_object_name": "FENGYUN 1C DEB",
        "meta_object_id": "1999-025QG",
        "meta_epoch": "2025-12-06T17:02:51.590976",
        "meta_mean_motion": 14.00788863,
        "meta_eccentricity": 0.00846862,
        "meta_inclination": 99.0366,
        "meta_ra_of_asc_node": 36.3139,
        "meta_arg_of_pericenter": 316.0008,
        "meta_mean_anomaly": 164.3003,
        "meta_ephemeris_type": 0,
        "meta_classification_type": "U",
        "meta_norad_cat_id": 30079,
        "meta_element_set_no": 999,
        "meta_rev_at_epoch": 96453,
        "meta_bstar": 0.00036443798,
        "meta_mean_motion_dot": 5.16e-06,
        "meta_mean_motion_ddot": 0,
        "tle_line1": "1 30079U 99025QG  25340.71031934  .00000516  00000+0  36444-3 0  9991",
        "tle_line2": "2 30079  99.0366  36.3139 0084686 316.0008 164.3003 14.00788863964538"
      },
      "geometry": {
        "type": "Point",
        "coordinates": [
          32.17077133701762,
          28.23400799061384
        ]
      }
    }
  ]
}